GLOBALSTAR M045 [-]     
1 25676U 99019A   24031.92651986 -.00000020  00000+0  64620-3 0  9993
2 25676  51.9983 296.7812 0000832  10.5680 115.4605 12.27029984131732
GLOBALSTAR M019 [-]     
1 25677U 99019B   24032.49039649  .00000037  00000+0  13211-2 0  9999
2 25677  51.9901  30.2434 0001087  32.8902 140.5290 12.13852466124400
GLOBALSTAR M044 [-]     
1 25678U 99019C   24031.91971407 -.00000052  00000+0  44469-3 0  9991
2 25678  51.9968 280.3585 0006479 144.7004 347.1525 11.90228146111515
GLOBALSTAR M042 [-]     
1 25679U 99019D   24031.94230222 -.00000061  00000+0  29651-3 0  9994
2 25679  52.0034  28.7689 0002995 347.3887  27.9773 12.22055130123855
GLOBALSTAR M025 [-]     
1 25770U 99031A   24031.84021228 -.00000068  00000+0 -25403-4 0  9993
2 25770  51.9781 242.9890 0002127  51.8498  82.6418 11.22549092425291
GLOBALSTAR M049 [-]     
1 25771U 99031B   24031.81759443 -.00000120  00000+0 -19171-2 0  9990
2 25771  51.9842 252.5582 0002173 247.1292 112.9275 11.12102871 61538
GLOBALSTAR M047 [-]     
1 25772U 99031C   24031.76524058 -.00000057  00000+0  34988-3 0  9999
2 25772  51.9849 297.6465 0016747 117.6471 242.6037 11.31918216414211
GLOBALSTAR M052 [-]     
1 25773U 99031D   24031.94136755 -.00000039  00000+0  89477-3 0  9996
2 25773  51.9910   8.0108 0002676  59.1864 333.5640 11.15047798422489
